{"type": "FeatureCollection", "features": [{"type": "Feature", "properties": {"norad_id": 36828, "name": "BEIDOU-2 IGSO-1 (C06)", "group": "beidou", "lat": -20.237034520458337, "lon": -0.031849184834453426, "alt_km": 35576.301064279665, "timestamp": "2025-12-20T11:30:28.642247+00:00", "meta": {"OBJECT_NAME": "BEIDOU-2 IGSO-1 (C06)", "OBJECT_ID": "2010-036A", "EPOCH": "2025-12-14T21:38:21.623424", "MEAN_MOTION": 1.00275796, "ECCENTRICITY": 0.00512569, "INCLINATION": 54.2866, "RA_OF_ASC_NODE": 164.6279, "ARG_OF_PERICENTER": 215.8888, "MEAN_ANOMALY": 135.7931, "EPHEMERIS_TYPE": 0, "CLASSIFICATION_TYPE": "U", "NORAD_CAT_ID": 36828, "ELEMENT_SET_NO": 999, "REV_AT_EPOCH": 5624, "BSTAR": 0, "MEAN_MOTION_DOT": -2.4e-07, "MEAN_MOTION_DDOT": 0}, "tle": {"line1": "1 36828U 10036A   25348.90163916 -.00000024  00000+0  00000+0 0  9999", "line2": "2 36828  54.2866 164.6279 0051256 215.8888 135.7931  1.00275796 56247"}}, "geometry": {"type": "Point", "coordinates": [-0.031849184834453426, -20.237034520458337]}}, {"type": "Feature", "properties": {"norad_id": 37210, "name": "BEIDOU-2 G4 (C04)", "group": "beidou", "lat": -0.41487220707037686, "lon": 62.06300731663922, "alt_km": 35827.431236196775, "timestamp": "2025-12-20T11:30:28.642272+00:00", "meta": {"OBJECT_NAME": "BEIDOU-2 G4 (C04)", "OBJECT_ID": "2010-057A", "EPOCH": "2025-12-20T03:43:10.763616", "MEAN_MOTION": 1.00272028, "ECCENTRICITY": 0.0010428, "INCLINATION": 3.2021, "RA_OF_ASC_NODE": 69.9113, "ARG_OF_PERICENTER": 192.7452, "MEAN_ANOMALY": 42.2144, "EPHEMERIS_TYPE": 0, "CLASSIFICATION_TYPE": "U", "NORAD_CAT_ID": 37210, "ELEMENT_SET_NO": 999, "REV_AT_EPOCH": 5549, "BSTAR": 0, "MEAN_MOTION_DOT": -9e-07, "MEAN_MOTION_DDOT": 0}, "tle": {"line1": "1 37210U 10057A   25354.15498569 -.00000090  00000+0  00000+0 0  9990", "line2": "2 37210   3.2021  69.9113 0010428 192.7452  42.2144  1.00272028 55499"}}, "geometry": {"type": "Point", "coordinates": [62.06300731663922, -0.41487220707037686]}}, {"type": "Feature", "properties": {"norad_id": 37256, "name": "BEIDOU-2 IGSO-2 (C07)", "group": "beidou", "lat": 47.649634042280915, "lon": 11.898476831959009, "alt_km": 35881.37043904736, "timestamp": "2025-12-20T11:30:28.642287+00:00", "meta": {"OBJECT_NAME": "BEIDOU-2 IGSO-2 (C07)", "OBJECT_ID": "2010-068A", "EPOCH": "2025-12-19T17:11:58.178112", "MEAN_MOTION": 1.00284373, "ECCENTRICITY": 0.00484108, "INCLINATION": 47.8732, "RA_OF_ASC_NODE": 274.0632, "ARG_OF_PERICENTER": 216.3467, "MEAN_ANOMALY": 324.0365, "EPHEMERIS_TYPE": 0, "CLASSIFICATION_TYPE": "U", "NORAD_CAT_ID": 37256, "ELEMENT_SET_NO": 999, "REV_AT_EPOCH": 5499, "BSTAR": 0, "MEAN_MOTION_DOT": -1.93e-06, "MEAN_MOTION_DDOT": 0}, "tle": {"line1": "1 37256U 10068A   25353.71664558 -.00000193  00000+0  00000+0 0  9990", "line2": "2 37256  47.8732 274.0632 0048410 216.3467 324.0365  1.00284373 54994"}}, "geometry": {"type": "Point", "coordinates": [11.898476831959009, 47.649634042280915]}}, {"type": "Feature", "properties": {"norad_id": 37384, "name": "BEIDOU-2 IGSO-3 (C08)", "group": "beidou", "lat": -28.26666025573083, "lon": 25.386908472451037, "alt_km": 35904.14858698171, "timestamp": "2025-12-20T11:30:28.642300+00:00", "meta": {"OBJECT_NAME": "BEIDOU-2 IGSO-3 (C08)", "OBJECT_ID": "2011-013A", "EPOCH": "2025-12-19T15:24:21.799872", "MEAN_MOTION": 1.00269211, "ECCENTRICITY": 0.0035344, "INCLINATION": 62.1523, "RA_OF_ASC_NODE": 41.8505, "ARG_OF_PERICENTER": 187.8464, "MEAN_ANOMALY": 197.2749, "EPHEMERIS_TYPE": 0, "CLASSIFICATION_TYPE": "U", "NORAD_CAT_ID": 37384, "ELEMENT_SET_NO": 999, "REV_AT_EPOCH": 5386, "BSTAR": 0, "MEAN_MOTION_DOT": -1.68e-06, "MEAN_MOTION_DDOT": 0}, "tle": {"line1": "1 37384U 11013A   25353.64191898 -.00000168  00000+0  00000+0 0  9999", "line2": "2 37384  62.1523  41.8505 0035344 187.8464 197.2749  1.00269211 53869"}}, "geometry": {"type": "Point", "coordinates": [25.386908472451037, -28.26666025573083]}}, {"type": "Feature", "properties": {"norad_id": 37763, "name": "BEIDOU-2 IGSO-4 (C09)", "group": "beidou", "lat": -6.656196223936217, "lon": -7.9626103295422785, "alt_km": 35314.145189271505, "timestamp": "2025-12-20T11:30:28.642312+00:00", "meta": {"OBJECT_NAME": "BEIDOU-2 IGSO-4 (C09)", "OBJECT_ID": "2011-038A", "EPOCH": "2025-12-17T23:29:21.564384", "MEAN_MOTION": 1.00281312, "ECCENTRICITY": 0.01493143, "INCLINATION": 54.5836, "RA_OF_ASC_NODE": 167.2999, "ARG_OF_PERICENTER": 230.2426, "MEAN_ANOMALY": 136.1954, "EPHEMERIS_TYPE": 0, "CLASSIFICATION_TYPE": "U", "NORAD_CAT_ID": 37763, "ELEMENT_SET_NO": 999, "REV_AT_EPOCH": 5283, "BSTAR": 0, "MEAN_MOTION_DOT": 6.5e-07, "MEAN_MOTION_DDOT": 0}, "tle": {"line1": "1 37763U 11038A   25351.97872181  .00000065  00000+0  00000+0 0  9997", "line2": "2 37763  54.5836 167.2999 0149314 230.2426 136.1954  1.00281312 52838"}}, "geometry": {"type": "Point", "coordinates": [-7.9626103295422785, -6.656196223936217]}}, {"type": "Feature", "properties": {"norad_id": 37948, "name": "BEIDOU-2 IGSO-5 (C10)", "group": "beidou", "lat": 47.232414487975795, "lon": -9.925394899729923, "alt_km": 36135.35012173218, "timestamp": "2025-12-20T11:30:28.642325+00:00", "meta": {"OBJECT_NAME": "BEIDOU-2 IGSO-5 (C10)", "OBJECT_ID": "2011-073A", "EPOCH": "2025-12-19T18:17:17.237184", "MEAN_MOTION": 1.00289893, "ECCENTRICITY": 0.01098798, "INCLINATION": 48.0071, "RA_OF_ASC_NODE": 273.7726, "ARG_OF_PERICENTER": 222.325, "MEAN_ANOMALY": 320.2143, "EPHEMERIS_TYPE": 0, "CLASSIFICATION_TYPE": "U", "NORAD_CAT_ID": 37948, "ELEMENT_SET_NO": 999, "REV_AT_EPOCH": 5133, "BSTAR": 0, "MEAN_MOTION_DOT": -1.59e-06, "MEAN_MOTION_DDOT": 0}, "tle": {"line1": "1 37948U 11073A   25353.76200506 -.00000159  00000+0  00000+0 0  9991", "line2": "2 37948  48.0071 273.7726 0109879 222.3250 320.2143  1.00289893 51334"}}, "geometry": {"type": "Point", "coordinates": [-9.925394899729923, 47.232414487975795]}}, {"type": "Feature", "properties": {"norad_id": 38091, "name": "BEIDOU-2 G5 (C05)", "group": "beidou", "lat": -2.957945809931034, "lon": -39.279151750254556, "alt_km": 35735.475850495466, "timestamp": "2025-12-20T11:30:28.642337+00:00", "meta": {"OBJECT_NAME": "BEIDOU-2 G5 (C05)", "OBJECT_ID": "2012-008A", "EPOCH": "2025-12-19T16:03:31.750272", "MEAN_MOTION": 1.00268606, "ECCENTRICITY": 0.0012969, "INCLINATION": 3.1258, "RA_OF_ASC_NODE": 70.6861, "ARG_OF_PERICENTER": 231.3522, "MEAN_ANOMALY": 86.1393, "EPHEMERIS_TYPE": 0, "CLASSIFICATION_TYPE": "U", "NORAD_CAT_ID": 38091, "ELEMENT_SET_NO": 999, "REV_AT_EPOCH": 5056, "BSTAR": 0, "MEAN_MOTION_DOT": 7.9e-07, "MEAN_MOTION_DDOT": 0}, "tle": {"line1": "1 38091U 12008A   25353.66911748  .00000079  00000+0  00000+0 0  9996", "line2": "2 38091   3.1258  70.6861 0012969 231.3522  86.1393  1.00268606 50560"}}, "geometry": {"type": "Point", "coordinates": [-39.279151750254556, -2.957945809931034]}}, {"type": "Feature", "properties": {"norad_id": 38250, "name": "BEIDOU-2 M3 (C11)", "group": "beidou", "lat": 48.91630031863538, "lon": 1.768027415255185, "alt_km": 21581.13225237591, "timestamp": "2025-12-20T11:30:28.642349+00:00", "meta": {"OBJECT_NAME": "BEIDOU-2 M3 (C11)", "OBJECT_ID": "2012-018A", "EPOCH": "2025-12-19T07:23:03.381792", "MEAN_MOTION": 1.86230015, "ECCENTRICITY": 0.0024195, "INCLINATION": 55.9145, "RA_OF_ASC_NODE": 310.9364, "ARG_OF_PERICENTER": 274.9131, "MEAN_ANOMALY": 84.7979, "EPHEMERIS_TYPE": 0, "CLASSIFICATION_TYPE": "U", "NORAD_CAT_ID": 38250, "ELEMENT_SET_NO": 999, "REV_AT_EPOCH": 9259, "BSTAR": 0, "MEAN_MOTION_DOT": -7.8e-07, "MEAN_MOTION_DDOT": 0}, "tle": {"line1": "1 38250U 12018A   25353.30767803 -.00000078  00000+0  00000+0 0  9996", "line2": "2 38250  55.9145 310.9364 0024195 274.9131  84.7979  1.86230015 92598"}}, "geometry": {"type": "Point", "coordinates": [1.768027415255185, 48.91630031863538]}}, {"type": "Feature", "properties": {"norad_id": 38251, "name": "BEIDOU-2 M4 (C12)", "group": "beidou", "lat": 50.56249527732102, "lon": 74.45338077108423, "alt_km": 21564.240379626106, "timestamp": "2025-12-20T11:30:28.642361+00:00", "meta": {"OBJECT_NAME": "BEIDOU-2 M4 (C12)", "OBJECT_ID": "2012-018B", "EPOCH": "2025-12-19T05:45:13.599936", "MEAN_MOTION": 1.86229684, "ECCENTRICITY": 0.00153935, "INCLINATION": 55.8157, "RA_OF_ASC_NODE": 310.167, "ARG_OF_PERICENTER": 278.4783, "MEAN_ANOMALY": 81.3347, "EPHEMERIS_TYPE": 0, "CLASSIFICATION_TYPE": "U", "NORAD_CAT_ID": 38251, "ELEMENT_SET_NO": 999, "REV_AT_EPOCH": 9259, "BSTAR": 0, "MEAN_MOTION_DOT": -7.8e-07, "MEAN_MOTION_DDOT": 0}, "tle": {"line1": "1 38251U 12018B   25353.23974074 -.00000078  00000+0  00000+0 0  9999", "line2": "2 38251  55.8157 310.1670 0015393 278.4783  81.3347  1.86229684 92597"}}, "geometry": {"type": "Point", "coordinates": [74.45338077108423, 50.56249527732102]}}, {"type": "Feature", "properties": {"norad_id": 38775, "name": "BEIDOU-2 M6 (C14)", "group": "beidou", "lat": -43.081395796270684, "lon": 30.429224546530914, "alt_km": 21508.472657363585, "timestamp": "2025-12-20T11:30:28.642372+00:00", "meta": {"OBJECT_NAME": "BEIDOU-2 M6 (C14)", "OBJECT_ID": "2012-050B", "EPOCH": "2025-12-19T11:42:06.639840", "MEAN_MOTION": 1.86230927, "ECCENTRICITY": 0.0011333, "INCLINATION": 56.384, "RA_OF_ASC_NODE": 68.8435, "ARG_OF_PERICENTER": 343.6526, "MEAN_ANOMALY": 16.3469, "EPHEMERIS_TYPE": 0, "CLASSIFICATION_TYPE": "U", "NORAD_CAT_ID": 38775, "ELEMENT_SET_NO": 999, "REV_AT_EPOCH": 8996, "BSTAR": 0, "MEAN_MOTION_DOT": -5.2e-07, "MEAN_MOTION_DDOT": 0}, "tle": {"line1": "1 38775U 12050B   25353.48757685 -.00000052  00000+0  00000+0 0  9992", "line2": "2 38775  56.3840  68.8435 0011333 343.6526  16.3469  1.86230927 89961"}}, "geometry": {"type": "Point", "coordinates": [30.429224546530914, -43.081395796270684]}}]}